ONEWEB-0168             
1 48068U 21025AC  23316.56844838 -.00000300  00000+0 -85738-3 0  9995
2 48068  87.8915 148.7896 0001644  87.3245 272.8073 13.13470752129164
ONEWEB-0173             
1 48069U 21025AD  23316.56209707 -.00000208  00000+0 -60338-3 0  9992
2 48069  87.8918 148.8075 0001289 105.5125 254.6146 13.13470648129403
ONEWEB-0171             
1 48070U 21025AE  23316.59595019  .00000284  00000+0  74399-3 0  9995
2 48070  87.8984 148.8152 0001331  88.7298 271.3984 13.13474283129220
ONEWEB-0172             
1 48071U 21025AF  23316.57795965 -.00000174  00000+0 -51216-3 0  9999
2 48071  87.8983 148.7873 0001253  94.0501 266.0772 13.13473273130113
ONEWEB-0174             
1 48072U 21025AG  23316.56000730 -.00000179  00000+0 -52385-3 0  9991
2 48072  87.8983 148.8055 0001765  86.3646 273.7685 13.13466348129435
ONEWEB-0175             
1 48073U 21025AH  23316.58750081  .00000022  00000+0  24209-4 0  9995
2 48073  87.8987 148.7956 0001100  76.6047 283.5205 13.13472323129098
ONEWEB-0177             
1 48074U 21025AJ  23316.52400671  .00000305  00000+0  79900-3 0  9998
2 48074  87.8989 148.8125 0001495 106.8062 253.3231 13.13470004129278
ONEWEB-0178             
1 48075U 21025AK  23316.54198738  .00000160  00000+0  40302-3 0  9992
2 48075  87.8984 148.8123 0001549  96.6386 263.4919 13.13471133129322
